{
  "type": "FeatureCollection",
  "features": [
    {
      "type": "Feature",
      "properties": {
        "norad_id": 35646,
        "name": "COSMOS 2251 DEB",
        "group": "cosmos-2251-debris",
        "lat": -48.048509360006776,
        "lon": -98.96393967289121,
        "alt_km": 918.2548742524014,
        "timestamp": "2025-12-08T19:31:49.203475+00:00",
        "meta_object_name": "COSMOS 2251 DEB",
        "meta_object_id": "1993-036ANM",
        "meta_epoch": "2025-12-07T12:05:34.979712",
        "meta_mean_motion": 13.4080565,
        "meta_eccentricity": 0.04574175,
        "meta_inclination": 73.8717,
        "meta_ra_of_asc_node": 64.3362,
        "meta_arg_of_pericenter": 175.3742,
        "meta_mean_anomaly": 210.5375,
        "meta_ephemeris_type": 0,
        "meta_classification_type": "U",
        "meta_norad_cat_id": 35646,
        "meta_element_set_no": 999,
        "meta_rev_at_epoch": 81788,
        "meta_bstar": 0.0018659149,
        "meta_mean_motion_dot": 1.884e-05,
        "meta_mean_motion_ddot": 0,
        "tle_line1": "1 35646U 93036ANM 25341.50387708  .00001884  00000+0  18659-2 0  9999",
        "tle_line2": "2 35646  73.8717  64.3362 0457417 175.3742 210.5375 13.40805650817887"
      },
      "geometry": {
        "type": "Point",
        "coordinates": [
          -98.96393967289121,
          -48.048509360006776
        ]
      }
    },
    {
      "type": "Feature",
      "properties": {
        "norad_id": 35647,
        "name": "COSMOS 2251 DEB",
        "group": "cosmos-2251-debris",
        "lat": 2.2632642253822635,
        "lon": -57.481590616351056,
        "alt_km": 724.0937882542057,
        "timestamp": "2025-12-08T19:31:49.203485+00:00",
        "meta_object_name": "COSMOS 2251 DEB",
        "meta_object_id": "1993-036ANN",
        "meta_epoch": "2025-12-06T04:19:05.390400",
        "meta_mean_motion": 14.4357388,
        "meta_eccentricity": 0.0045144,
        "meta_inclination": 74.0229,
        "meta_ra_of_asc_node": 306.7667,
        "meta_arg_of_pericenter": 47.5691,
        "meta_mean_anomaly": 312.927,
        "meta_ephemeris_type": 0,
        "meta_classification_type": "U",
        "meta_norad_cat_id": 35647,
        "meta_element_set_no": 999,
        "meta_rev_at_epoch": 67569,
        "meta_bstar": 0.0014529978,
        "meta_mean_motion_dot": 4.961e-05,
        "meta_mean_motion_ddot": 0,
        "tle_line1": "1 35647U 93036ANN 25340.17992350  .00004961  00000+0  14530-2 0  9990",
        "tle_line2": "2 35647  74.0229 306.7667 0045144  47.5691 312.9270 14.43573880675696"
      },
      "geometry": {
        "type": "Point",
        "coordinates": [
          -57.481590616351056,
          2.2632642253822635
        ]
      }
    },
    {
      "type": "Feature",
      "properties": {
        "norad_id": 35650,
        "name": "COSMOS 2251 DEB",
        "group": "cosmos-2251-debris",
        "lat": -28.195130194676697,
        "lon": 17.82776908610595,
        "alt_km": 626.6718111786968,
        "timestamp": "2025-12-08T19:31:49.203494+00:00",
        "meta_object_name": "COSMOS 2251 DEB",
        "meta_object_id": "1993-036ANR",
        "meta_epoch": "2025-12-08T03:36:42.003360",
        "meta_mean_motion": 14.83439918,
        "meta_eccentricity": 0.00144992,
        "meta_inclination": 74.0459,
        "meta_ra_of_asc_node": 27.9616,
        "meta_arg_of_pericenter": 77.9788,
        "meta_mean_anomaly": 312.1591,
        "meta_ephemeris_type": 0,
        "meta_classification_type": "U",
        "meta_norad_cat_id": 35650,
        "meta_element_set_no": 999,
        "meta_rev_at_epoch": 87566,
        "meta_bstar": 0.0019992637,
        "meta_mean_motion_dot": 0.00016459,
        "meta_mean_motion_ddot": 0,
        "tle_line1": "1 35650U 93036ANR 25342.15048615  .00016459  00000+0  19993-2 0  9993",
        "tle_line2": "2 35650  74.0459  27.9616 0014499  77.9788 312.1591 14.83439918875668"
      },
      "geometry": {
        "type": "Point",
        "coordinates": [
          17.82776908610595,
          -28.195130194676697
        ]
      }
    },
    {
      "type": "Feature",
      "properties": {
        "norad_id": 35660,
        "name": "COSMOS 2251 DEB",
        "group": "cosmos-2251-debris",
        "lat": 21.822258700616345,
        "lon": 147.17978741544832,
        "alt_km": 726.0802192099127,
        "timestamp": "2025-12-08T19:31:49.203503+00:00",
        "meta_object_name": "COSMOS 2251 DEB",
        "meta_object_id": "1993-036APB",
        "meta_epoch": "2025-12-07T17:00:01.687104",
        "meta_mean_motion": 14.49901725,
        "meta_eccentricity": 0.001834,
        "meta_inclination": 74.0394,
        "meta_ra_of_asc_node": 142.6736,
        "meta_arg_of_pericenter": 291.9525,
        "meta_mean_anomaly": 83.1689,
        "meta_ephemeris_type": 0,
        "meta_classification_type": "U",
        "meta_norad_cat_id": 35660,
        "meta_element_set_no": 999,
        "meta_rev_at_epoch": 65798,
        "meta_bstar": 0.00083521949,
        "meta_mean_motion_dot": 3.208e-05,
        "meta_mean_motion_ddot": 0,
        "tle_line1": "1 35660U 93036APB 25341.70835286  .00003208  00000+0  83522-3 0  9990",
        "tle_line2": "2 35660  74.0394 142.6736 0018340 291.9525  83.1689 14.49901725657989"
      },
      "geometry": {
        "type": "Point",
        "coordinates": [
          147.17978741544832,
          21.822258700616345
        ]
      }
    },
    {
      "type": "Feature",
      "properties": {
        "norad_id": 35661,
        "name": "COSMOS 2251 DEB",
        "group": "cosmos-2251-debris",
        "lat": -41.438073600235796,
        "lon": -77.78374023674255,
        "alt_km": 561.8711428757861,
        "timestamp": "2025-12-08T19:31:49.203512+00:00",
        "meta_object_name": "COSMOS 2251 DEB",
        "meta_object_id": "1993-036APC",
        "meta_epoch": "2025-12-07T00:31:55.227936",
        "meta_mean_motion": 14.86404912,
        "meta_eccentricity": 0.00886648,
        "meta_inclination": 74.0137,
        "meta_ra_of_asc_node": 91.1249,
        "meta_arg_of_pericenter": 196.7404,
        "meta_mean_anomaly": 163.0846,
        "meta_ephemeris_type": 0,
        "meta_classification_type": "U",
        "meta_norad_cat_id": 35661,
        "meta_element_set_no": 999,
        "meta_rev_at_epoch": 87783,
        "meta_bstar": 0.0015419215,
        "meta_mean_motion_dot": 0.00014614,
        "meta_mean_motion_ddot": 0,
        "tle_line1": "1 35661U 93036APC 25341.02216699  .00014614  00000+0  15419-2 0  9999",
        "tle_line2": "2 35661  74.0137  91.1249 0088664 196.7404 163.0846 14.86404912877834"
      },
      "geometry": {
        "type": "Point",
        "coordinates": [
          -77.78374023674255,
          -41.438073600235796
        ]
      }
    },
    {
      "type": "Feature",
      "properties": {
        "norad_id": 35663,
        "name": "COSMOS 2251 DEB",
        "group": "cosmos-2251-debris",
        "lat": 40.4724246261446,
        "lon": 146.39290624715136,
        "alt_km": 676.9290088846901,
        "timestamp": "2025-12-08T19:31:49.203522+00:00",
        "meta_object_name": "COSMOS 2251 DEB",
        "meta_object_id": "1993-036APE",
        "meta_epoch": "2025-11-30T11:26:45.384288",
        "meta_mean_motion": 14.65332391,
        "meta_eccentricity": 0.00074535,
        "meta_inclination": 74.0171,
        "meta_ra_of_asc_node": 148.2949,
        "meta_arg_of_pericenter": 219.2944,
        "meta_mean_anomaly": 140.7685,
        "meta_ephemeris_type": 0,
        "meta_classification_type": "U",
        "meta_norad_cat_id": 35663,
        "meta_element_set_no": 999,
        "meta_rev_at_epoch": 73202,
        "meta_bstar": 0.0015821861,
        "meta_mean_motion_dot": 8.525e-05,
        "meta_mean_motion_ddot": 0,
        "tle_line1": "1 35663U 93036APE 25334.47691417  .00008525  00000+0  15822-2 0  9999",
        "tle_line2": "2 35663  74.0171 148.2949 0007453 219.2944 140.7685 14.65332391732024"
      },
      "geometry": {
        "type": "Point",
        "coordinates": [
          146.39290624715136,
          40.4724246261446
        ]
      }
    },
    {
      "type": "Feature",
      "properties": {
        "norad_id": 35667,
        "name": "COSMOS 2251 DEB",
        "group": "cosmos-2251-debris",
        "lat": 8.25163157013838,
        "lon": -34.786602760552306,
        "alt_km": 683.5406961931149,
        "timestamp": "2025-12-08T19:31:49.203531+00:00",
        "meta_object_name": "COSMOS 2251 DEB",
        "meta_object_id": "1993-036APJ",
        "meta_epoch": "2025-12-08T03:56:45.664224",
        "meta_mean_motion": 14.59944075,
        "meta_eccentricity": 0.00200745,
        "meta_inclination": 74.0547,
        "meta_ra_of_asc_node": 148.8267,
        "meta_arg_of_pericenter": 210.1041,
        "meta_mean_anomaly": 149.8973,
        "meta_ephemeris_type": 0,
        "meta_classification_type": "U",
        "meta_norad_cat_id": 35667,
        "meta_element_set_no": 999,
        "meta_rev_at_epoch": 70736,
        "meta_bstar": 0.0014176974,
        "meta_mean_motion_dot": 6.791e-05,
        "meta_mean_motion_ddot": 0,
        "tle_line1": "1 35667U 93036APJ 25342.16441741  .00006791  00000+0  14177-2 0  9996",
        "tle_line2": "2 35667  74.0547 148.8267 0020074 210.1041 149.8973 14.59944075707366"
      },
      "geometry": {
        "type": "Point",
        "coordinates": [
          -34.786602760552306,
          8.25163157013838
        ]
      }
    }
  ]
}